IRIDIUM 155             
1 43573U 18061E   24279.56664697  .00001195  00000+0  41960-3 0  9999
2 43573  86.3952 315.6375 0002194  99.2280 260.9164 14.34217927324549
IRIDIUM 154             
1 43574U 18061F   24279.54762065  .00000020  00000+0  62900-7 0  9993
2 43574  86.3953 315.7489 0002009  90.4438 269.6988 14.34217532324598
IRIDIUM 163             
1 43575U 18061G   24279.52859219  .00000419  00000+0  14270-3 0  9995
2 43575  86.3952 315.6919 0001977  95.7797 264.3624 14.34218328324564
IRIDIUM 156             
1 43576U 18061H   24279.50322310  .00001329  00000+0  46745-3 0  9994
2 43576  86.3953 315.7089 0002401  99.9002 260.2464 14.34220526324552
IRIDIUM 164             
1 43577U 18061J   24279.55395881  .00001125  00000+0  39461-3 0  9994
2 43577  86.3955 315.7184 0002293  88.4336 271.7122 14.34222063324605
IRIDIUM 159             
1 43578U 18061K   24279.52224985  .00000341  00000+0  11484-3 0  9992
2 43578  86.3952 315.6812 0002194  93.2425 266.9022 14.34218111324562
IRIDIUM 180             
1 43922U 19002A   24279.45196164  .00000818  00000+0  28492-3 0  9996
2 43922  86.3930 252.5381 0002149  79.7461 280.3977 14.34211675300167
IRIDIUM 176             
1 43923U 19002B   24279.42942071  .00005036  00000+0  79478-3 0  9997
2 43923  86.6060 252.5587 0002422  84.7351 275.4143 14.72225049308060
IRIDIUM 168             
1 43924U 19002C   24279.44562651  .00000901  00000+0  31473-3 0  9991
2 43924  86.3931 252.5998 0002264  85.3621 274.7833 14.34225204300142
IRIDIUM 173             
1 43925U 19002D   24279.43294703  .00001234  00000+0  43361-3 0  9990
2 43925  86.3928 252.5195 0002184  83.5236 276.6209 14.34223067300122
IRIDIUM 169             
1 43926U 19002E   24279.51032228  .00000508  00000+0  15965-3 0  9994
2 43926  86.4161 284.1370 0001528 146.1962 213.9334 14.38608999301132
IRIDIUM 172             
1 43927U 19002F   24279.42660608  .00000789  00000+0  27469-3 0  9997
2 43927  86.3928 252.5281 0002324  88.1274 272.0188 14.34220568300139
IRIDIUM 175             
1 43928U 19002G   24279.35598237  .00006317  00000+0  99708-3 0  9996
2 43928  86.1540 219.5320 0002442  91.2599 268.8897 14.72257303308048
IRIDIUM 171             
1 43929U 19002H   24279.47734341  .00001581  00000+0  55734-3 0  9997
2 43929  86.3930 252.7455 0002504  92.0345 268.1137 14.34221658300133
IRIDIUM 170             
1 43930U 19002J   24279.43560458  .00004182  00000+0  65950-3 0  9992
2 43930  86.6063 252.5613 0002745  78.4238 281.7287 14.72222609308072
IRIDIUM 167             
1 43931U 19002K   24279.47100506 -.00000056  00000+0 -26959-4 0  9996
2 43931  86.3931 252.5268 0002366  88.5990 271.5476 14.34217724300132
IRIDIUM 181             
1 56726U 23068S   24279.52837816  .00001357  00000+0  39523-3 0  9999
2 56726  86.8607 311.6386 0002620  94.7840 265.3660 14.43577207 73056
IRIDIUM 177             
1 56727U 23068T   24279.48358192  .00003286  00000+0  42865-3 0  9996
2 56727  86.1924 262.9684 0002440 102.2682 257.8812 14.80258480 74696
IRIDIUM 174             
1 56728U 23068U   24279.47838402  .00003308  00000+0  43172-3 0  9990
2 56728  86.1930 263.0833 0002580  98.0801 262.0712 14.80242345 74692
IRIDIUM 178             
1 56729U 23068V   24279.54019916  .00002223  00000+0  28903-3 0  9990
2 56729  86.5716 285.7634 0002412  90.6232 269.5266 14.80236078 74703
IRIDIUM 179             
1 56730U 23068W   24279.53477875  .00002700  00000+0  35190-3 0  9999
2 56730  86.6729 291.2950 0002340 102.7980 257.3503 14.80236210 74705
